start=new Date('2022-01-30T00:00:00.000Z').valueOf();
sats=[{"GP_ID":"194915306","LAUNCH_DATE":"2021-09-14","SITE":"AFWTR","REF_FRAME":"TEME","SEMIMAJOR_AXIS":"6950.066","OBJECT_NAME":"STARLINK-3053","ELEMENT_SET_NO":"999","OBJECT_ID":"2021-082V","TLE_LINE1":"1 49149U 21082V   22029.91667824 -.00065744  00000-0 -55476-2 0  9995","MEAN_MOTION":"14.98371165","OBJECT_TYPE":"PAYLOAD","FILE":"3287083","BSTAR":"-0.00554760000000","EPHEMERIS_TYPE":"0","TLE_LINE2":"2 49149  69.9984 115.9189 0003797 283.3443 337.3439 14.98371165  3573","NORAD_CAT_ID":"49149","MEAN_MOTION_DDOT":"0.0000000000000","PERIAPSIS":"569.292","MEAN_ELEMENT_THEORY":"SGP4","INCLINATION":"69.9984","MEAN_ANOMALY":"337.3439","PERIOD":"96.104","DECAY_DATE":null,"MEAN_MOTION_DOT":"-0.00065744","COUNTRY_CODE":"US","EPOCH":"2022-01-29T22:00:00.999936","CLASSIFICATION_TYPE":"U","APOAPSIS":"574.570","ECCENTRICITY":"0.00037970","REV_AT_EPOCH":"357","RCS_SIZE":"LARGE","ARG_OF_PERICENTER":"283.3443","TIME_SYSTEM":"UTC","CENTER_NAME":"EARTH","RA_OF_ASC_NODE":"115.9189"},{"RCS_SIZE":"LARGE","REV_AT_EPOCH":"357","TIME_SYSTEM":"UTC","ARG_OF_PERICENTER":"284.3233","CENTER_NAME":"EARTH","RA_OF_ASC_NODE":"115.9168","MEAN_MOTION_DOT":"-0.00066502","COUNTRY_CODE":"US","EPOCH":"2022-01-29T22:00:00.999936","CLASSIFICATION_TYPE":"U","ECCENTRICITY":"0.00037700","APOAPSIS":"574.559","NORAD_CAT_ID":"49150","EPHEMERIS_TYPE":"0","TLE_LINE2":"2 49150  69.9976 115.9168 0003770 284.3233   2.0837 14.98368422  3572","MEAN_MOTION_DDOT":"0.0000000000000","INCLINATION":"69.9976","PERIAPSIS":"569.319","MEAN_ELEMENT_THEORY":"SGP4","DECAY_DATE":null,"MEAN_ANOMALY":"2.0837","PERIOD":"96.105","LAUNCH_DATE":"2021-09-14","GP_ID":"194915558","SITE":"AFWTR","OBJECT_NAME":"STARLINK-3104","SEMIMAJOR_AXIS":"6950.074","REF_FRAME":"TEME","ELEMENT_SET_NO":"999","OBJECT_ID":"2021-082W","OBJECT_TYPE":"PAYLOAD","MEAN_MOTION":"14.98368422","TLE_LINE1":"1 49150U 21082W   22029.91667824 -.00066502  00000-0 -56127-2 0  9994","FILE":"3287083","BSTAR":"-0.00561270000000"},{"RA_OF_ASC_NODE":"99.5257","CENTER_NAME":"EARTH","ARG_OF_PERICENTER":"295.2451","TIME_SYSTEM":"UTC","REV_AT_EPOCH":"369","RCS_SIZE":"LARGE","ECCENTRICITY":"0.00042180","APOAPSIS":"362.314","CLASSIFICATION_TYPE":"U","EPOCH":"2022-01-29T22:00:00.999936","COUNTRY_CODE":"US","MEAN_MOTION_DOT":"-0.00085984","PERIOD":"91.731","MEAN_ANOMALY":"206.5830","DECAY_DATE":null,"MEAN_ELEMENT_THEORY":"SGP4","PERIAPSIS":"356.630","INCLINATION":"69.9991","MEAN_MOTION_DDOT":"0.0000000000000","TLE_LINE2":"2 49151  69.9991  99.5257 0004218 295.2451 206.5830 15.69799743  3697","EPHEMERIS_TYPE":"0","NORAD_CAT_ID":"49151","BSTAR":"-0.00072421000000","FILE":"3287083","TLE_LINE1":"1 49151U 21082X   22029.91667824 -.00085984  00000-0 -72421-3 0  9996","MEAN_MOTION":"15.69799743","OBJECT_TYPE":"PAYLOAD","OBJECT_ID":"2021-082X","ELEMENT_SET_NO":"999","REF_FRAME":"TEME","SITE":"AFWTR","SEMIMAJOR_AXIS":"6737.607","OBJECT_NAME":"STARLINK-3102","GP_ID":"194916308","LAUNCH_DATE":"2021-09-14"},{"ELEMENT_SET_NO":"999","OBJECT_ID":"2021-082Y","OBJECT_TYPE":"PAYLOAD","MEAN_MOTION":"15.69738445","TLE_LINE1":"1 49152U 21082Y   22029.91667824 -.00001842  00000-0 -13656-4 0  9994","BSTAR":"-0.00001365600000","FILE":"3287083","LAUNCH_DATE":"2021-09-14","GP_ID":"194914556","SITE":"AFWTR","OBJECT_NAME":"STARLINK-3081","SEMIMAJOR_AXIS":"6737.782","REF_FRAME":"TEME","MEAN_MOTION_DDOT":"0.0000000000000","INCLINATION":"69.9999","MEAN_ELEMENT_THEORY":"SGP4","PERIAPSIS":"356.824","DECAY_DATE":null,"PERIOD":"91.735","MEAN_ANOMALY":"214.7873","NORAD_CAT_ID":"49152","EPHEMERIS_TYPE":"0","TLE_LINE2":"2 49152  69.9999  99.5238 0004190 295.5554 214.7873 15.69738445  3691","EPOCH":"2022-01-29T22:00:00.999936","CLASSIFICATION_TYPE":"U","APOAPSIS":"362.470","ECCENTRICITY":"0.00041900","MEAN_MOTION_DOT":"-0.00001842","COUNTRY_CODE":"US","CENTER_NAME":"EARTH","RA_OF_ASC_NODE":"99.5238","RCS_SIZE":"LARGE","REV_AT_EPOCH":"369","TIME_SYSTEM":"UTC","ARG_OF_PERICENTER":"295.5554"},{"SEMIMAJOR_AXIS":"6737.698","SITE":"AFWTR","REF_FRAME":"TEME","OBJECT_NAME":"STARLINK-3072","LAUNCH_DATE":"2021-09-14","GP_ID":"194914807","BSTAR":"-0.00049737000000","FILE":"3287083","MEAN_MOTION":"15.69767794","OBJECT_TYPE":"PAYLOAD","TLE_LINE1":"1 49153U 21082Z   22029.91667824 -.00059221  00000-0 -49737-3 0  9997","OBJECT_ID":"2021-082Z","ELEMENT_SET_NO":"999","NORAD_CAT_ID":"49153","EPHEMERIS_TYPE":"0","TLE_LINE2":"2 49153  70.0002  99.5250 0003838 294.6847 211.4137 15.69767794  3693","DECAY_DATE":null,"MEAN_ANOMALY":"211.4137","PERIOD":"91.733","INCLINATION":"70.0002","PERIAPSIS":"356.977","MEAN_ELEMENT_THEORY":"SGP4","MEAN_MOTION_DDOT":"0.0000000000000","COUNTRY_CODE":"US","MEAN_MOTION_DOT":"-0.00059221","APOAPSIS":"362.149","ECCENTRICITY":"0.00038380","CLASSIFICATION_TYPE":"U","EPOCH":"2022-01-29T22:00:00.999936","TIME_SYSTEM":"UTC","ARG_OF_PERICENTER":"294.6847","RCS_SIZE":"LARGE","REV_AT_EPOCH":"369","RA_OF_ASC_NODE":"99.5250","CENTER_NAME":"EARTH"},{"CENTER_NAME":"EARTH","RA_OF_ASC_NODE":"99.7797","RCS_SIZE":"LARGE","REV_AT_EPOCH":"369","TIME_SYSTEM":"UTC","ARG_OF_PERICENTER":"276.5558","EPOCH":"2022-01-29T22:00:00.999936","CLASSIFICATION_TYPE":"U","APOAPSIS":"400.332","ECCENTRICITY":"0.00034000","MEAN_MOTION_DOT":"-0.00661078","COUNTRY_CODE":"US","MEAN_MOTION_DDOT":"0.0000000000000","INCLINATION":"69.9999","PERIAPSIS":"395.725","MEAN_ELEMENT_THEORY":"SGP4","DECAY_DATE":null,"PERIOD":"92.520","MEAN_ANOMALY":"7.7150","NORAD_CAT_ID":"49154","TLE_LINE2":"2 49154  69.9999  99.7797 0003400 276.5558   7.7150 15.56420483  3695","EPHEMERIS_TYPE":"0","ELEMENT_SET_NO":"999","OBJECT_ID":"2021-082AA","OBJECT_TYPE":"PAYLOAD","MEAN_MOTION":"15.56420483","TLE_LINE1":"1 49154U 21082AA  22029.91667824 -.00661078  00000-0 -10109-1 0  9996","BSTAR":"-0.01010900000000","FILE":"3287083","LAUNCH_DATE":"2021-09-14","GP_ID":"194916058","SITE":"AFWTR","SEMIMAJOR_AXIS":"6776.164","REF_FRAME":"TEME","OBJECT_NAME":"STARLINK-3068"},{"LAUNCH_DATE":"2021-09-14","GP_ID":"194915809","SITE":"AFWTR","SEMIMAJOR_AXIS":"6737.665","OBJECT_NAME":"STARLINK-3060","REF_FRAME":"TEME","OBJECT_ID":"2021-082AB","ELEMENT_SET_NO":"999","BSTAR":"-0.00056847000000","FILE":"3287083","OBJECT_TYPE":"PAYLOAD","MEAN_MOTION":"15.69779526","TLE_LINE1":"1 49155U 21082AB  22029.91667824 -.00067630  00000-0 -56847-3 0  9992","NORAD_CAT_ID":"49155","TLE_LINE2":"2 49155  69.9989  99.5171 0004265 298.0383 210.1868 15.69779526  3699","EPHEMERIS_TYPE":"0","MEAN_MOTION_DDOT":"0.0000000000000","DECAY_DATE":null,"PERIOD":"91.733","MEAN_ANOMALY":"210.1868","INCLINATION":"69.9989","MEAN_ELEMENT_THEORY":"SGP4","PERIAPSIS":"356.656","MEAN_MOTION_DOT":"-0.00067630","COUNTRY_CODE":"US","EPOCH":"2022-01-29T22:00:00.999936","APOAPSIS":"362.403","ECCENTRICITY":"0.00042650","CLASSIFICATION_TYPE":"U","TIME_SYSTEM":"UTC","ARG_OF_PERICENTER":"298.0383","RCS_SIZE":"LARGE","REV_AT_EPOCH":"369","RA_OF_ASC_NODE":"99.5171","CENTER_NAME":"EARTH"},{"EPOCH":"2022-01-29T22:00:00.999936","CLASSIFICATION_TYPE":"U","APOAPSIS":"362.292","ECCENTRICITY":"0.00041690","MEAN_MOTION_DOT":"-0.00059619","COUNTRY_CODE":"US","CENTER_NAME":"EARTH","RA_OF_ASC_NODE":"99.5064","RCS_SIZE":"LARGE","REV_AT_EPOCH":"369","TIME_SYSTEM":"UTC","ARG_OF_PERICENTER":"296.6695","ELEMENT_SET_NO":"999","OBJECT_ID":"2021-082AC","OBJECT_TYPE":"PAYLOAD","MEAN_MOTION":"15.69795880","TLE_LINE1":"1 49156U 21082AC  22029.91667824 -.00059619  00000-0 -50012-3 0  9999","FILE":"3287083","BSTAR":"-0.00050012000000","LAUNCH_DATE":"2021-09-14","GP_ID":"194915056","SEMIMAJOR_AXIS":"6737.618","SITE":"AFWTR","REF_FRAME":"TEME","OBJECT_NAME":"STARLINK-3085","MEAN_MOTION_DDOT":"0.0000000000000","INCLINATION":"69.9989","MEAN_ELEMENT_THEORY":"SGP4","PERIAPSIS":"356.674","DECAY_DATE":null,"MEAN_ANOMALY":"222.1234","PERIOD":"91.732","NORAD_CAT_ID":"49156","TLE_LINE2":"2 49156  69.9989  99.5064 0004169 296.6695 222.1234 15.69795880  3695","EPHEMERIS_TYPE":"0"},{"RA_OF_ASC_NODE":"99.7724","CENTER_NAME":"EARTH","ARG_OF_PERICENTER":"276.5603","TIME_SYSTEM":"UTC","REV_AT_EPOCH":"369","RCS_SIZE":"LARGE","EPOCH":"2022-01-29T22:00:00.999936","ECCENTRICITY":"0.00034220","APOAPSIS":"399.566","CLASSIFICATION_TYPE":"U","MEAN_MOTION_DOT":"-0.00660892","COUNTRY_CODE":"US","MEAN_MOTION_DDOT":"0.0000000000000","PERIOD":"92.504","MEAN_ANOMALY":"18.9493","DECAY_DATE":null,"MEAN_ELEMENT_THEORY":"SGP4","PERIAPSIS":"394.929","INCLINATION":"69.9999","EPHEMERIS_TYPE":"0","TLE_LINE2":"2 49157  69.9999  99.7724 0003422 276.5603  18.9493 15.56689528  3694","NORAD_CAT_ID":"49157","OBJECT_ID":"2021-082AD","ELEMENT_SET_NO":"999","FILE":"3287083","BSTAR":"-0.01000500000000","TLE_LINE1":"1 49157U 21082AD  22029.91667824 -.00660892  00000-0 -10005-1 0  9997","OBJECT_TYPE":"PAYLOAD","MEAN_MOTION":"15.56689528","GP_ID":"194915307","LAUNCH_DATE":"2021-09-14","SITE":"AFWTR","SEMIMAJOR_AXIS":"6775.383","REF_FRAME":"TEME","OBJECT_NAME":"STARLINK-3051"},{"RCS_SIZE":"LARGE","REV_AT_EPOCH":"369","TIME_SYSTEM":"UTC","ARG_OF_PERICENTER":"274.1239","CENTER_NAME":"EARTH","RA_OF_ASC_NODE":"99.7651","MEAN_MOTION_DOT":"-0.00660586","COUNTRY_CODE":"US","EPOCH":"2022-01-29T22:00:00.999936","CLASSIFICATION_TYPE":"U","ECCENTRICITY":"0.00034400","APOAPSIS":"399.392","NORAD_CAT_ID":"49158","EPHEMERIS_TYPE":"0","TLE_LINE2":"2 49158  69.9999  99.7651 0003440 274.1239  32.0496 15.56753962  3697","MEAN_MOTION_DDOT":"0.0000000000000","INCLINATION":"69.9999","MEAN_ELEMENT_THEORY":"SGP4","PERIAPSIS":"394.730","DECAY_DATE":null,"PERIOD":"92.500","MEAN_ANOMALY":"32.0496","LAUNCH_DATE":"2021-09-14","GP_ID":"194915559","OBJECT_NAME":"STARLINK-3083","SITE":"AFWTR","SEMIMAJOR_AXIS":"6775.196","REF_FRAME":"TEME","ELEMENT_SET_NO":"999","OBJECT_ID":"2021-082AE","MEAN_MOTION":"15.56753962","OBJECT_TYPE":"PAYLOAD","TLE_LINE1":"1 49158U 21082AE  22029.91667824 -.00660586  00000-0 -99759-2 0  9992","BSTAR":"-0.00997590000000","FILE":"3287083"}];
